Satellite: CHUBUSAT-1
Catalog number: 40300
Epoch time:      16168.41656544
Element set:     999 
Inclination:       97.4253 deg
RA of node:       248.5378 deg
Eccentricity:    0.0019907
Arg of perigee:   304.6073 deg
Mean anomaly:     119.1004 deg
Mean motion:   15.19839385 rev/day
Decay rate:      1.485E-05 rev/day^2
Epoch rev:            8921
Checksum:              323

Satellite: FIREBIRD 3
Catalog number: 40377
Epoch time:      16168.27536265
Element set:     999 
Inclination:       99.0859 deg
RA of node:       274.9238 deg
Eccentricity:    0.0145005
Arg of perigee:   132.6410 deg
Mean anomaly:     228.7147 deg
Mean motion:   15.12537781 rev/day
Decay rate:      5.886E-05 rev/day^2
Epoch rev:            7564
Checksum:              344

Satellite: FIREBIRD 4
Catalog number: 40378
Epoch time:      16168.27176125
Element set:     999 
Inclination:       99.0859 deg
RA of node:       274.9339 deg
Eccentricity:    0.0145206
Arg of perigee:   132.5997 deg
Mean anomaly:     228.7585 deg
Mean motion:   15.12548621 rev/day
Decay rate:      5.915E-05 rev/day^2
Epoch rev:            7564
Checksum:              359

Satellite: GRIFEX
Catalog number: 40379
Epoch time:      16168.27276322
Element set:     999 
Inclination:       99.0866 deg
RA of node:       274.0937 deg
Eccentricity:    0.0149193
Arg of perigee:   136.1403 deg
Mean anomaly:     225.1782 deg
Mean motion:   15.10776101 rev/day
Decay rate:      4.348E-05 rev/day^2
Epoch rev:            7559
Checksum:              327

Satellite: EXOCUBE
Catalog number: 40380
Epoch time:      16168.33582045
Element set:     999 
Inclination:       99.0897 deg
RA of node:       273.6468 deg
Eccentricity:    0.0151936
Arg of perigee:   137.3096 deg
Mean anomaly:     224.0052 deg
Mean motion:   15.09612714 rev/day
Decay rate:      3.883E-05 rev/day^2
Epoch rev:            7556
Checksum:              330

Satellite: NO-84
Catalog number: 40654
Epoch time:      16161.22884362
Element set:     139 
Inclination:       54.9952 deg
RA of node:        93.6621 deg
Eccentricity:    0.0210969
Arg of perigee:    53.9968 deg
Mean anomaly:     308.0249 deg
Mean motion:   15.25209845 rev/day
Decay rate:     1.9085E-04 rev/day^2
Epoch rev:            2282
Checksum:              426

Satellite: NO-83
Catalog number: 40655
Epoch time:      16161.23217614
Element set:     155 
Inclination:       54.9850 deg
RA of node:        87.5678 deg
Eccentricity:    0.0193855
Arg of perigee:    56.4006 deg
Mean anomaly:     305.4973 deg
Mean motion:   15.30033824 rev/day
Decay rate:     2.5664E-04 rev/day^2
Epoch rev:            2288
Checksum:              318

Satellite: DEORBITSAIL
Catalog number: 40719
Epoch time:      16167.66187794
Element set:     999 
Inclination:       98.0176 deg
RA of node:        59.3075 deg
Eccentricity:    0.0015251
Arg of perigee:   240.1663 deg
Mean anomaly:     119.8031 deg
Mean motion:   14.75550144 rev/day
Decay rate:       7.47E-06 rev/day^2
Epoch rev:            5026
Checksum:              312

Satellite: S-CUBE
Catalog number: 40898
Epoch time:      16168.03236780
Element set:     999 
Inclination:       51.6341 deg
RA of node:        43.9954 deg
Eccentricity:    0.0004304
Arg of perigee:   204.2128 deg
Mean anomaly:     155.8669 deg
Mean motion:   15.75371705 rev/day
Decay rate:     4.5685E-04 rev/day^2
Epoch rev:            4254
Checksum:              329

Satellite: XW-2A
Catalog number: 40903
Epoch time:      16168.47952191
Element set:     999 
Inclination:       97.4457 deg
RA of node:       183.6210 deg
Eccentricity:    0.0017094
Arg of perigee:   133.3817 deg
Mean anomaly:       4.3798 deg
Mean motion:   15.36424523 rev/day
Decay rate:      3.763E-05 rev/day^2
Epoch rev:            4144
Checksum:              316

Satellite: XW-2C
Catalog number: 40906
Epoch time:      16168.53276861
Element set:     999 
Inclination:       97.4522 deg
RA of node:       175.6240 deg
Eccentricity:    0.0016953
Arg of perigee:    43.8167 deg
Mean anomaly:      80.6951 deg
Mean motion:   15.13599382 rev/day
Decay rate:      1.341E-05 rev/day^2
Epoch rev:            4090
Checksum:              321

Satellite: XW-2D
Catalog number: 40907
Epoch time:      16168.33572438
Element set:     999 
Inclination:       97.4490 deg
RA of node:       175.3086 deg
Eccentricity:    0.0016445
Arg of perigee:    42.6316 deg
Mean anomaly:      82.1792 deg
Mean motion:   15.13640976 rev/day
Decay rate:      1.491E-05 rev/day^2
Epoch rev:            4087
Checksum:              325

Satellite: LILACSAT 2
Catalog number: 40908
Epoch time:      16168.54186657
Element set:     999 
Inclination:       97.4587 deg
RA of node:       175.5317 deg
Eccentricity:    0.0017716
Arg of perigee:    38.0547 deg
Mean anomaly:      78.2215 deg
Mean motion:   15.12551466 rev/day
Decay rate:       9.71E-06 rev/day^2
Epoch rev:            4088
Checksum:              339

Satellite: XW-2E
Catalog number: 40909
Epoch time:      16161.73991372
Element set:     999 
Inclination:       97.4521 deg
RA of node:       169.2216 deg
Eccentricity:    0.0016613
Arg of perigee:    68.1645 deg
Mean anomaly:      18.2941 deg
Mean motion:   15.14536473 rev/day
Decay rate:      2.651E-05 rev/day^2
Epoch rev:            3989
Checksum:              325

Satellite: XW-2F
Catalog number: 40910
Epoch time:      16168.30267628
Element set:     999 
Inclination:       97.4526 deg
RA of node:       175.4623 deg
Eccentricity:    0.0017761
Arg of perigee:    41.4172 deg
Mean anomaly:      77.7810 deg
Mean motion:   15.14098551 rev/day
Decay rate:      2.293E-05 rev/day^2
Epoch rev:            4076
Checksum:              312

Satellite: XW-2B
Catalog number: 40911
Epoch time:      16168.47438007
Element set:     999 
Inclination:       97.4539 deg
RA of node:       175.6164 deg
Eccentricity:    0.0016316
Arg of perigee:    42.6653 deg
Mean anomaly:     120.0195 deg
Mean motion:   15.13624654 rev/day
Decay rate:      1.461E-05 rev/day^2
Epoch rev:            4079
Checksum:              305

Satellite: TIANWANG 1C (TW-1C)
Catalog number: 40926
Epoch time:      16168.42327208
Element set:     999 
Inclination:       97.2756 deg
RA of node:       205.3484 deg
Eccentricity:    0.0015673
Arg of perigee:    56.8346 deg
Mean anomaly:      67.5888 deg
Mean motion:   15.36491630 rev/day
Decay rate:      9.484E-05 rev/day^2
Epoch rev:            4064
Checksum:              344

Satellite: TIANWANG 1B (TW-1B)
Catalog number: 40927
Epoch time:      16168.37870388
Element set:     999 
Inclination:       97.2852 deg
RA of node:       205.4390 deg
Eccentricity:    0.0015724
Arg of perigee:    63.8107 deg
Mean anomaly:      57.9337 deg
Mean motion:   15.35619270 rev/day
Decay rate:      8.071E-05 rev/day^2
Epoch rev:            4062
Checksum:              327

Satellite: TIANWANG 1A (TW-1A)
Catalog number: 40928
Epoch time:      16168.49583113
Element set:     999 
Inclination:       97.2700 deg
RA of node:       204.5929 deg
Eccentricity:    0.0015915
Arg of perigee:    71.7334 deg
Mean anomaly:      38.0335 deg
Mean motion:   15.33281251 rev/day
Decay rate:      4.525E-05 rev/day^2
Epoch rev:            4061
Checksum:              299

Satellite: LAPAN-A2 (IO-86)
Catalog number: 40931
Epoch time:      16168.40358851
Element set:     999 
Inclination:        5.9989 deg
RA of node:       320.6849 deg
Eccentricity:    0.0013067
Arg of perigee:   107.9615 deg
Mean anomaly:     252.1922 deg
Mean motion:   14.76463418 rev/day
Decay rate:       6.28E-06 rev/day^2
Epoch rev:            3881
Checksum:              348

Satellite: ARSAT 2
Catalog number: 40941
Epoch time:      16167.49158861
Element set:     999 
Inclination:        0.0315 deg
RA of node:       323.9042 deg
Eccentricity:    0.0001235
Arg of perigee:    84.7582 deg
Mean anomaly:     311.3483 deg
Mean motion:    1.00269453 rev/day
Decay rate:      -2.26E-06 rev/day^2
Epoch rev:             268
Checksum:              276

Satellite: GOMX 3
Catalog number: 40949
Epoch time:      16168.16837604
Element set:     999 
Inclination:       51.6316 deg
RA of node:        39.6277 deg
Eccentricity:    0.0003711
Arg of perigee:   199.3452 deg
Mean anomaly:     160.7409 deg
Mean motion:   15.79186317 rev/day
Decay rate:     4.5045E-04 rev/day^2
Epoch rev:            3990
Checksum:              335

Satellite: LQSAT
Catalog number: 40958
Epoch time:      16168.42819806
Element set:     999 
Inclination:       98.0140 deg
RA of node:       243.3329 deg
Eccentricity:    0.0018768
Arg of perigee:   152.7001 deg
Mean anomaly:     207.5193 deg
Mean motion:   14.72872252 rev/day
Decay rate:       1.13E-06 rev/day^2
Epoch rev:            3727
Checksum:              307

Satellite: AO-85
Catalog number: 40967
Epoch time:      16159.69838781
Element set:     156 
Inclination:       64.7780 deg
RA of node:       274.6068 deg
Eccentricity:    0.0204963
Arg of perigee:   208.4360 deg
Mean anomaly:     150.5454 deg
Mean motion:   14.75018438 rev/day
Decay rate:       8.04E-06 rev/day^2
Epoch rev:            2187
Checksum:              340

Satellite: ATHENOXAT 1
Catalog number: 41168
Epoch time:      16168.12874235
Element set:     999 
Inclination:       14.9848 deg
RA of node:       320.4801 deg
Eccentricity:    0.0012731
Arg of perigee:   345.6760 deg
Mean anomaly:     178.3826 deg
Mean motion:   15.09974704 rev/day
Decay rate:      2.676E-05 rev/day^2
Epoch rev:            2759
Checksum:              332

